LEMUR-2-ANDIS           
1 42838U 17042P   26068.55941107  .00023598  00000+0  79875-3 0  9998
2 42838  97.3659 249.7950 0009101   4.3248 355.8070 15.30557934473198
STARLINK-35160          
1 65911U 25225B   26068.55566598  .00029185  00000+0  99402-3 0  9990
2 65911  53.1576 166.5841 0001148  63.5890 296.5228 15.30187032 24388
